#aV2008 11  7  0  0   .00000000      96 DD+AD WGS84 FIT  NGA
## 1504 432000.00000000   900.00000000 54777  .0000000000000
+   31     2  3  4  5  6  7  8  9 10 11 12 13 14 15 16 17 18
+         19 20 21 22 23 24 25 26 27 28 29 30 31 32  0  0  0
+          0  0  0  0  0  0  0  0  0  0  0  0  0  0  0  0  0
+          0  0  0  0  0  0  0  0  0  0  0  0  0  0  0  0  0
+          0  0  0  0  0  0  0  0  0  0  0  0  0  0  0  0  0
++         0  0  0  0  0  0  0  0  0  0  0  0  0  0  0  0  0
++         0  0  0  0  0  0  0  0  0  0  0  0  0  0  0  0  0
++         0  0  0  0  0  0  0  0  0  0  0  0  0  0  0  0  0
++         0  0  0  0  0  0  0  0  0  0  0  0  0  0  0  0  0
++         0  0  0  0  0  0  0  0  0  0  0  0  0  0  0  0  0
%c cc cc ccc ccc cccc cccc cccc cccc ccccc ccccc ccccc ccccc
%c cc cc ccc ccc cccc cccc cccc cccc ccccc ccccc ccccc ccccc
%f  0.0000000  0.000000000  0.00000000000  0.000000000000000
%f  0.0000000  0.000000000  0.00000000000  0.000000000000000
%i    0    0    0    0      0      0      0      0         0
%i    0    0    0    0      0      0      0      0         0
/*      NGA, ST. LOUIS,MO.                                  
/*   EPHEMERIS COMPUTED FROM  3 DAYS OF DATA                
/* CCCCCCCCCCCCCCCCCCCCCCCCCCCCCCCCCCCCCCCCCCCCCCCCCCCCCCCCC
/* CCCCCCCCCCCCCCCCCCCCCCCCCCCCCCCCCCCCCCCCCCCCCCCCCCCCCCCCC
*  2008 11  7 15 15   .00000000                                                 
P  2 -20833.599555   9992.314773 -12884.091276    174.771488                    
V  2   8369.111280 -14341.071224 -25283.165148      -.025703                    
P  3  15536.607848  -3929.210401  20916.978358    307.813552                    
V  3  11340.145110  24886.730595  -3342.676506       .052415                    
P  4 -16786.164659  -3514.897224 -20479.363930   -224.879342                    
V  4  16413.491814 -19832.332203  -9736.155695      -.120281                    
P  5  -4617.641473  15226.892827 -21552.172553   -372.431045                    
V  5 -26574.547982  -3098.837390   3676.634173      -.298830                    
P  6  16823.065885    894.511821  20721.681579    147.596221                    
V  6   8597.595177  24550.044545  -8103.079019      -.064266                    
P  7   1606.267784 -20039.551959  17279.924173     23.007892                    
V  7  15771.282662 -15459.309080 -19470.628633       .003433                    
P  8  -9846.687507 -10833.461558  22078.721916   -177.116682                    
V  8  19882.080728 -19925.021076  -1389.825095      -.014260                    
P  9 -13862.013951  22197.943611  -4769.916039     23.712278                    
V  9  -5163.198044   2587.575819  31364.638792       .018766                    
P 10 -24396.097510   2120.441530  10553.128954     -6.958556                    
V 10 -12685.152435  -5120.828710 -27596.697663      -.004870                    
P 11  10033.973076 -24100.840374  -3940.663362     16.154769                    
V 11   6934.741173  -1704.431163  29776.333072      -.008645                    
P 12 -10456.758286  12614.692323 -20813.916410   -342.059404                    
V 12 -25917.094045  -6049.571058   9413.978965       .022670                    
P 13  -4632.851859 -25856.709425  -4045.975723    276.265784                    
V 13   2969.778308   4328.533489 -31961.038378       .014092                    
P 14  14912.758452  16661.315537 -14308.290643   -197.559430                    
V 14   3962.113059  17893.358253  24652.143460       .047636                    
P 15  -9829.133677  14449.628269  20025.650363   -207.020351                    
V 15  -9587.314545 -23524.382211  12314.196038      -.062564                    
P 16  26097.576105   1998.865691   5199.793378     96.772752                    
V 16   5832.242493   3705.715651 -30833.032801      -.023408                    
P 17 -15112.905556 -17945.727470 -12575.676585     40.216629                    
V 17  -2833.091105 -15876.762564  25796.796621       .003864                    
P 18  11579.658195  16076.516918  18066.758992   -115.388172                    
V 18 -22214.083510  -3532.604261  17221.044206       .038877                    
P 19  10090.349081 -15138.050758  19344.492823     35.598220                    
V 19   7641.313379  23322.896892  14526.681391      -.001038                    
P 20   6626.688223 -14507.756662 -21348.841841     99.728066                    
V 20  26411.480165   5154.820396   4760.741809      -.010387                    
P 21   3928.915533  17323.165886  19780.669606     43.528431                    
V 21 -18035.602921  17284.334301 -12300.044410      -.015686                    
P 22  21993.397343  12001.113614   9069.086538    209.641385                    
V 22 -11685.494214    293.070778  28404.834304      -.004666                    
P 23   1523.166756 -23071.135145 -12873.504852    379.266755                    
V 23   7297.746494  14796.251913 -26016.380227       .011696                    
P 24 -10696.317167  22048.825225  10729.795689    139.216726                    
V 24 -11019.417009   7881.547950 -27293.658037       .028891                    
P 25   6352.813537 -23079.379415  12052.931913      4.597271                    
V 25  10158.203802 -10772.443541 -26604.350866       .312609                    
P 26 -12403.141469   7804.176902  21596.249882     12.457763                    
V 26  -8429.820862 -27352.218207   5438.378395       .045353                    
P 27  -2610.568718 -18451.086244  19568.545441    231.011119                    
V 27  15175.211347 -17859.117151 -15465.745733       .028189                    
P 28 -21009.498299 -12611.717143  11056.427789    -23.469360                    
V 28  13432.386309   1006.820387  27345.654104      -.001985                    
P 29   3707.612355  25606.376259  -5987.534659    -31.116685                    
V 29  -4939.586174  -6544.196361 -30479.157416       .017906                    
P 30   5182.189476  15969.023734 -20959.254597    106.476228                    
V 30 -25635.464802  -3149.377710  -8808.570433       .022437                    
P 31  17714.695728     80.458552 -19614.661691    -37.085772                    
V 31 -15758.762311  19824.844344 -13897.111169      -.022570                    
P 32  14788.872207  -9650.905828 -19346.327104    314.696069                    
V 32  24176.972185   8359.930745  14206.174792      -.010683                    
EOF
